[{"OBJECT_NAME":"STARLINK-2685","OBJECT_ID":"2021-040AS","EPOCH":"2026-03-10T00:00:02.999808","MEAN_MOTION":15.22639637,"ECCENTRICITY":0.0001772,"INCLINATION":53.1253,"RA_OF_ASC_NODE":189.7147,"ARG_OF_PERICENTER":86.2021,"MEAN_ANOMALY":349.9142,"EPHEMERIS_TYPE":0,"CLASSIFICATION_TYPE":"U","NORAD_CAT_ID":48468,"ELEMENT_SET_NO":999,"REV_AT_EPOCH":574,"BSTAR":0.06523857,"MEAN_MOTION_DOT":0.01676642,"MEAN_MOTION_DDOT":0},{"OBJECT_NAME":"OBJECT BE","OBJECT_ID":"2024-199BE","EPOCH":"2026-03-09T22:35:11.240448","MEAN_MOTION":15.34583634,"ECCENTRICITY":0.00126202,"INCLINATION":97.3163,"RA_OF_ASC_NODE":298.7137,"ARG_OF_PERICENTER":307.7021,"MEAN_ANOMALY":52.3078,"EPHEMERIS_TYPE":0,"CLASSIFICATION_TYPE":"U","NORAD_CAT_ID":61787,"ELEMENT_SET_NO":999,"REV_AT_EPOCH":12186,"BSTAR":0.00035348262,"MEAN_MOTION_DOT":0.00011799,"MEAN_MOTION_DDOT":0}]
